NORAD_CAT_ID,OBJECT_NAME,OBJECT_TYPE,EPOCH,MEAN_MOTION,ECCENTRICITY,INCLINATION,RA_OF_ASC_NODE,ARG_OF_PERICENTER,MEAN_ANOMALY,BSTAR,MEAN_MOTION_DOT,MEAN_MOTION_DDOT,TLE_LINE0,TLE_LINE1,TLE_LINE2,SEMIMAJOR_AXIS,PERIOD,APOGEE,PERIGEE,DECAYED
54805.0,STARLINK-5417,PAYLOAD,2023-11-13 03:33:15,15.08840477,0.0001549,53.2173,233.5928,96.4038,263.7131,8.6638e-05,1.091e-05,0.0,0 STARLINK-5417,1 54805U 22175AZ  23317.14809763  .00001091  00000-0  86638-4 0  9999,2 54805  53.2173 233.5928 0001549  96.4038 263.7131 15.08840477 50020,6917.879,95.438,540.816,538.672,0.0
54805.0,STARLINK-5417,PAYLOAD,2023-11-13 11:30:11,15.08839126,0.0001752,53.2176,232.1048,77.3408,282.778,7.2198e-05,8.61e-06,0.0,0 STARLINK-5417,1 54805U 22175AZ  23317.47930037  .00000861  00000-0  72198-4 0  9994,2 54805  53.2176 232.1048 0001752  77.3408 282.7780 15.08839126 52231,6917.883,95.438,540.96,538.536,0.0
54805.0,STARLINK-5417,PAYLOAD,2023-11-14 01:48:39,15.08837062,0.0001601,53.2173,229.4286,84.5018,275.6157,6.6981e-05,7.78e-06,0.0,0 STARLINK-5417,1 54805U 22175AZ  23318.07546256  .00000778  00000-0  66981-4 0  9997,2 54805  53.2173 229.4286 0001601  84.5018 275.6157 15.08837062 50167,6917.889,95.438,540.862,538.647,0.0
54805.0,STARLINK-5417,PAYLOAD,2023-11-14 20:53:17,15.0882307,0.0001792,53.2173,225.8601,93.3003,266.8195,0.00015495,2.178e-05,0.0,0 STARLINK-5417,1 54805U 22175AZ  23318.87034675  .00002178  00000-0  15495-3 0  9991,2 54805  53.2173 225.8601 0001792  93.3003 266.8195 15.08823070 52442,6917.932,95.439,541.037,538.557,0.0
54805.0,STARLINK-5417,PAYLOAD,2023-11-15 01:39:28,15.08817631,0.0001801,53.2177,224.9693,85.1264,274.9934,-0.00015158,-2.698e-05,0.0,0 STARLINK-5417,1 54805U 22175AZ  23319.06907822 -.00002698  00000-0 -15158-3 0  9991,2 54805  53.2177 224.9693 0001801  85.1264 274.9934 15.08817631 50317,6917.949,95.439,541.06,538.568,0.0
54805.0,STARLINK-5417,PAYLOAD,2023-11-16 03:05:36,15.08845322,0.0001767,53.2186,220.2103,77.4088,282.7102,6.5088e-05,7.48e-06,0.0,0 STARLINK-5417,1 54805U 22175AZ  23320.12889553  .00000748  00000-0  65088-4 0  9990,2 54805  53.2186 220.2103 0001767  77.4088 282.7102 15.08845322 50470,6917.864,95.437,540.952,538.507,0.0
54805.0,STARLINK-5417,PAYLOAD,2023-11-17 02:56:24,15.08838037,0.0001672,53.2178,215.7494,87.3351,272.7833,2.1602e-05,5.6e-07,0.0,0 STARLINK-5417,1 54805U 22175AZ  23321.12250108  .00000056  00000-0  21602-4 0  9995,2 54805  53.2178 215.7494 0001672  87.3351 272.7833 15.08838037 50623,6917.886,95.438,540.908,538.595,0.0
54805.0,STARLINK-5417,PAYLOAD,2023-11-18 02:47:11,15.08841732,0.000161,53.2172,211.2889,87.0439,273.0738,-6.3392e-05,-1.297e-05,0.0,0 STARLINK-5417,1 54805U 22175AZ  23322.11610094 -.00001297  00000-0 -63392-4 0  9991,2 54805  53.2172 211.2889 0001610  87.0439 273.0738 15.08841732 52932,6917.875,95.437,540.854,538.626,0.0
54805.0,STARLINK-5417,PAYLOAD,2023-11-19 02:37:58,15.08836511,0.0001627,53.2166,206.8292,83.0591,277.0586,-9.6012e-06,-4.41e-06,0.0,0 STARLINK-5417,1 54805U 22175AZ  23323.10970324 -.00000441  00000-0 -96012-5 0  9992,2 54805  53.2166 206.8292 0001627  83.0591 277.0586 15.08836511 50927,6917.891,95.438,540.882,538.631,0.0
54805.0,STARLINK-5417,PAYLOAD,2023-11-19 08:59:30,15.08837494,0.0001635,53.2168,205.6399,83.1366,276.9812,-1.7477e-06,-3.16e-06,0.0,0 STARLINK-5417,1 54805U 22175AZ  23323.37466273 -.00000316  00000-0 -17477-5 0  9993,2 54805  53.2168 205.6399 0001635  83.1366 276.9812 15.08837494 53120,6917.888,95.438,540.884,538.622,0.0
54805.0,STARLINK-5417,PAYLOAD,2023-11-19 21:42:35,15.08838896,0.0001598,53.2166,203.261,82.9255,277.1919,2.0227e-05,3.4e-07,0.0,0 STARLINK-5417,1 54805U 22175AZ  23323.90458141  .00000034  00000-0  20227-4 0  9998,2 54805  53.2166 203.2610 0001598  82.9255 277.1919 15.08838896 53207,6917.884,95.438,540.854,538.643,0.0
54805.0,STARLINK-5417,PAYLOAD,2023-11-20 00:53:21,15.08841882,0.0001549,53.2164,202.6667,83.2523,276.8645,3.4246e-05,2.57e-06,0.0,0 STARLINK-5417,1 54805U 22175AZ  23324.03705886  .00000257  00000-0  34246-4 0  9997,2 54805  53.2164 202.6667 0001549  83.2523 276.8645 15.08841882 51061,6917.875,95.437,540.811,538.668,0.0
54805.0,STARLINK-5417,PAYLOAD,2023-11-20 08:50:17,15.08831095,0.000158,53.2163,201.1801,82.8397,277.2775,0.00010784,1.428e-05,0.0,0 STARLINK-5417,1 54805U 22175AZ  23324.36826334  .00001428  00000-0  10784-3 0  9996,2 54805  53.2163 201.1801 0001580  82.8397 277.2775 15.08831095 51113,6917.908,95.438,540.866,538.68,0.0
54805.0,STARLINK-5417,PAYLOAD,2023-11-20 21:33:23,15.08832944,0.0001653,53.2165,198.8015,83.7226,276.3954,-3.1807e-05,-7.94e-06,0.0,0 STARLINK-5417,1 54805U 22175AZ  23324.89818855 -.00000794  00000-0 -31807-4 0  9990,2 54805  53.2165 198.8015 0001653  83.7226 276.3954 15.08832944 53357,6917.902,95.438,540.91,538.623,0.0
54805.0,STARLINK-5417,PAYLOAD,2023-11-21 08:41:05,15.08834252,0.0001684,53.2167,196.7201,86.0325,274.086,-1.9616e-05,-6e-06,0.0,0 STARLINK-5417,1 54805U 22175AZ  23325.36186838 -.00000600  00000-0 -19616-4 0  9992,2 54805  53.2167 196.7201 0001684  86.0325 274.0860 15.08834252 53426,6917.898,95.438,540.928,538.598,0.0
54805.0,STARLINK-5417,PAYLOAD,2023-11-21 21:24:10,15.08839888,0.0001619,53.2165,194.3424,90.4105,269.7072,-1.28e-05,-4.92e-06,0.0,0 STARLINK-5417,1 54805U 22175AZ  23325.89178556 -.00000492  00000-0 -12800-4 0  9995,2 54805  53.2165 194.3424 0001619  90.4105 269.7072 15.08839888 53503,6917.881,95.438,540.866,538.626,0.0
54805.0,STARLINK-5417,PAYLOAD,2023-11-21 22:59:33,15.08841133,0.0001642,53.2165,194.0456,94.8371,265.2809,1.0698e-06,-2.71e-06,0.0,0 STARLINK-5417,1 54805U 22175AZ  23325.95802416 -.00000271  00000-0  10698-5 0  9999,2 54805  53.2165 194.0456 0001642  94.8371 265.2809 15.08841133 51350,6917.877,95.437,540.878,538.606,0.0
54805.0,STARLINK-5417,PAYLOAD,2023-11-22 19:39:34,15.08827867,0.0001563,53.2164,190.1796,89.6574,270.4597,9.6365e-06,-1.35e-06,0.0,0 STARLINK-5417,1 54805U 22175AZ  23326.81915483 -.00000135  00000-0  96365-5 0  9998,2 54805  53.2164 190.1796 0001563  89.6574 270.4597 15.08827867 51486,6917.917,95.438,540.864,538.701,0.0
54805.0,STARLINK-5417,PAYLOAD,2023-11-22 21:14:58,15.08831213,0.0001622,53.2165,189.8828,90.5677,269.5501,1.8569e-06,-2.58e-06,0.0,0 STARLINK-5417,1 54805U 22175AZ  23326.88539368 -.00000258  00000-0  18569-5 0  9995,2 54805  53.2165 189.8828 0001622  90.5677 269.5501 15.08831213 53654,6917.907,95.438,540.894,538.65,0.0
54805.0,STARLINK-5417,PAYLOAD,2023-11-23 00:25:44,15.08825893,0.0001399,53.217,189.2816,68.0573,292.0568,0.0001463,2.04e-05,0.0,0 STARLINK-5417,1 54805U 22175AZ  23327.01787340  .00002040  00000-0  14630-3 0  9999,2 54805  53.2170 189.2816 0001399  68.0573 292.0568 15.08825893 53670,6917.924,95.438,540.756,538.821,0.0
54805.0,STARLINK-5417,PAYLOAD,2023-11-23 19:30:21,15.08833145,0.000134,53.2162,185.7154,84.4704,275.6441,7.5761e-05,9.18e-06,0.0,0 STARLINK-5417,1 54805U 22175AZ  23327.81275144  .00000918  00000-0  75761-4 0  9996,2 54805  53.2162 185.7154 0001340  84.4704 275.6441 15.08833145 51631,6917.901,95.438,540.693,538.839,0.0
54805.0,STARLINK-5417,PAYLOAD,2023-11-23 21:05:44,15.0883037,0.0001407,53.2173,185.4155,78.5634,281.5516,0.00011606,1.559e-05,0.0,0 STARLINK-5417,1 54805U 22175AZ  23327.87899252  .00001559  00000-0  11606-3 0  9993,2 54805  53.2173 185.4155 0001407  78.5634 281.5516 15.08830370 53808,6917.91,95.438,540.748,538.801,0.0
54805.0,STARLINK-5417,PAYLOAD,2023-11-24 14:34:59,15.0884144,0.000138,53.2152,182.1484,93.2606,266.8544,9.3901e-06,-1.38e-06,0.0,0 STARLINK-5417,1 54805U 22175AZ  23328.60762975 -.00000138  00000-0  93901-5 0  9999,2 54805  53.2152 182.1484 0001380  93.2606 266.8544 15.08841440 53916,6917.876,95.437,540.696,538.786,0.0
54805.0,STARLINK-5417,PAYLOAD,2023-11-24 19:21:08,15.08842561,0.0001401,53.2152,181.2566,90.5267,269.5886,1.8345e-05,4e-08,0.0,0 STARLINK-5417,1 54805U 22175AZ  23328.80634852  .00000004  00000-0  18345-4 0  9992,2 54805  53.2152 181.2566 0001401  90.5267 269.5886 15.08842561 51781,6917.873,95.437,540.707,538.768,0.0
54805.0,STARLINK-5417,PAYLOAD,2023-11-24 20:56:31,15.08843816,0.0001362,53.2156,180.9593,88.9144,271.2005,2.1349e-05,5.2e-07,0.0,0 STARLINK-5417,1 54805U 22175AZ  23328.87258758  .00000052  00000-0  21349-4 0  9997,2 54805  53.2156 180.9593 0001362  88.9144 271.2005 15.08843816 53950,6917.869,95.437,540.676,538.792,0.0
54805.0,STARLINK-5417,PAYLOAD,2023-11-25 09:39:36,15.08839159,0.0001284,53.2156,178.5798,101.1918,258.9219,1.9586e-05,2.4e-07,0.0,0 STARLINK-5417,1 54805U 22175AZ  23329.40250851  .00000024  00000-0  19586-4 0  9992,2 54805  53.2156 178.5798 0001284 101.1918 258.9219 15.08839159 54034,6917.883,95.438,540.636,538.86,0.0
54805.0,STARLINK-5417,PAYLOAD,2023-11-25 20:47:18,15.08844761,0.0001501,53.2154,176.4989,96.4396,263.6768,1.432e-05,-6e-07,0.0,0 STARLINK-5417,1 54805U 22175AZ  23329.86618571 -.00000060  00000-0  14320-4 0  9991,2 54805  53.2154 176.4989 0001501  96.4396 263.6768 15.08844761 54104,6917.866,95.437,540.769,538.692,0.0
54805.0,STARLINK-5417,PAYLOAD,2023-11-26 19:02:42,15.08838571,0.0001383,53.215,172.3362,90.98,269.135,-1.0415e-05,-4.54e-06,0.0,0 STARLINK-5417,1 54805U 22175AZ  23330.79354907 -.00000454  00000-0 -10415-4 0  9994,2 54805  53.2150 172.3362 0001383  90.9800 269.1350 15.08838571 52082,6917.885,95.438,540.707,538.793,0.0
54805.0,STARLINK-5417,PAYLOAD,2023-11-26 20:38:05,15.08838474,0.0001387,53.215,172.0389,91.5437,268.5714,-1.1713e-05,-4.74e-06,0.0,0 STARLINK-5417,1 54805U 22175AZ  23330.85978907 -.00000474  00000-0 -11713-4 0  9997,2 54805  53.2150 172.0389 0001387  91.5437 268.5714 15.08838474 54255,6917.885,95.438,540.71,538.791,0.0
54805.0,STARLINK-5417,PAYLOAD,2023-11-27 14:07:20,15.08834197,0.0001288,53.2154,168.7668,98.664,261.4498,-5.8048e-05,-1.211e-05,0.0,0 STARLINK-5417,1 54805U 22175AZ  23331.58843423 -.00001211  00000-0 -58048-4 0  9994,2 54805  53.2154 168.7668 0001288  98.6640 261.4498 15.08834197 54366,6917.898,95.438,540.654,538.872,0.0
